0 PSLV DEB
1 34221U 01049PR  13285.20728189  .00001669  00000-0  14051-3 0  3903
2 34221 098.5134 059.1938 0088019 333.3487 147.0615 14.96943075620220
0 PSLV DEB
1 34221U 01049PR  13288.21507182  .00002179  00000-0  18186-3 0  3916
2 34221 098.5120 062.4644 0086933 323.2287 156.3431 14.96957504620675
0 PSLV DEB
1 34221U 01049PR  13292.61580098  .00001345  00000-0  11459-3 0  3923
2 34221 098.5126 067.2525 0087115 309.1310 111.8714 14.96977435621334
0 PSLV DEB
1 34221U 01049PR  13294.62130948  .00001227  00000-0  10507-3 0  3934
2 34221 098.5119 069.4356 0087179 302.3901 119.9731 14.96984881621637
